     2.100          NAVIGATION                              RINEX VERSION / TYPE
fic2rin                                 08/11/2017 00:04:51 PGM / RUN BY / DATE
                                                            END OF HEADER
 9 17  8 10  9 59 44.0  .422439537942D-03  .704858393874D-11  .000000000000D+00
     .800000000000D+01  .522812500000D+02  .489877548223D-08  .318456492420D-02
     .249408185482D-05  .665785279125D-03  .712275505066D-05  .515357493210D+04
     .381584000000D+06  .409781932831D-07 -.169241570532D+01  .186264514923D-08
     .952944538399D+00  .234875000000D+03  .192334832967D+01 -.831320342115D-08
     .602525097589D-09  .100000000000D+01  .196100000000D+04  .000000000000D+00
     .240000000000D+01  .000000000000D+00  .931322574615D-09  .800000000000D+01
     .380706000000D+06  .400000000000D+01
17 17  8 10  9 59 44.0 -.164343975484D-03  .238742359215D-11  .000000000000D+00
     .400000000000D+01  .781562500000D+02  .442125559161D-08 -.102005497487D+00
     .417791306973D-05  .117133134045D-01  .512413680553D-05  .515366665268D+04
     .381584000000D+06 -.894069671631D-07  .150772795638D+01  .633299350739D-07
     .980306526593D+00  .293093750000D+03 -.184609699481D+01 -.841463621766D-08
     .248938940735D-09  .100000000000D+01  .196100000000D+04  .000000000000D+00
     .240000000000D+01  .000000000000D+00 -.111758708954D-07  .400000000000D+01
     .380706000000D+06  .400000000000D+01
24 17  8 10  9 59 44.0 -.387011095881D-04 -.454747350886D-12  .000000000000D+00
     .430000000000D+02 -.381875000000D+02  .532629329007D-08 -.202050210470D+01
    -.215321779251D-05  .577777402941D-02  .538304448128D-05  .515367551041D+04
     .381584000000D+06  .100582838058D-06 -.668296095958D+00 -.987201929092D-07
     .944469369740D+00  .266625000000D+03  .473273521285D+00 -.848356766036D-08
    -.211794536378D-09  .100000000000D+01  .196100000000D+04  .000000000000D+00
     .240000000000D+01  .000000000000D+00  .279396772385D-08  .430000000000D+02
     .380736000000D+06  .400000000000D+01
 9 17  8 10 11 59 44.0  .422490295023D-03  .704858393874D-11  .000000000000D+00
     .230000000000D+02  .591250000000D+02  .485163066132D-08  .105394558317D+01
     .313296914101D-05  .664926716127D-03  .713020563126D-05  .515357320786D+04
     .388784000000D+06  .409781932831D-07 -.169247556501D+01  .186264514923D-08
     .952948894969D+00  .235625000000D+03  .192283185814D+01 -.831070331701D-08
     .604310886260D-09  .100000000000D+01  .196100000000D+04  .000000000000D+00
     .240000000000D+01  .000000000000D+00  .931322574615D-09  .230000000000D+02
     .381606000000D+06  .400000000000D+01
17 17  8 10 11 59 44.0 -.164326746017D-03  .238742359215D-11  .000000000000D+00
     .500000000000D+01  .827187500000D+02  .443197032364D-08  .948194617483D+00
     .429339706898D-05  .117138088681D-01  .545196235180D-05  .515366736984D+04
     .388784000000D+06 -.165775418282D-06  .150766737256D+01  .242143869400D-07
     .980308266003D+00  .288875000000D+03 -.184611328148D+01 -.838927801853D-08
     .253581991279D-09  .100000000000D+01  .196100000000D+04  .000000000000D+00
     .240000000000D+01  .000000000000D+00 -.111758708954D-07  .500000000000D+01
     .381606000000D+06  .400000000000D+01
24 17  8 10 11 59 44.0 -.387043692172D-04 -.454747350886D-12  .000000000000D+00
     .490000000000D+02 -.338437500000D+02  .533236497155D-08 -.970465826311D+00
    -.172853469849D-05  .577786052600D-02  .506266951561D-05  .515367388725D+04
     .388784000000D+06  .163912773132D-06 -.668357017718D+00  .000000000000D+00
     .944467663978D+00  .271406250000D+03  .473423367984D+00 -.854071289783D-08
    -.245010205659D-09  .100000000000D+01  .196100000000D+04  .000000000000D+00
     .240000000000D+01  .000000000000D+00  .279396772385D-08  .490000000000D+02
     .381606000000D+06  .400000000000D+01
 1 17  8 10 12  0  0.0  .562733039260D-04 -.341060513165D-12  .000000000000D+00
     .440000000000D+02 -.806562500000D+02  .456126142342D-08 -.123229033875D+01
    -.418163836002D-05  .695736589842D-02  .412017107010D-05  .515368013954D+04
     .388800000000D+06  .141561031342D-06  .251292185893D+01 -.391155481339D-07
     .968304088358D+00  .304687500000D+03  .602076970122D+00 -.828498796015D-08
    -.422517599554D-09  .100000000000D+01  .196100000000D+04  .000000000000D+00
     .240000000000D+01  .000000000000D+00  .558793544769D-08  .440000000000D+02
     .381606000000D+06  .400000000000D+01
 2 17  8 10 12  0  0.0  .357370823622D-03 -.875388650456D-11  .000000000000D+00
     .360000000000D+02 -.639687500000D+02  .530700677242D-08 -.877492952658D+00
    -.316277146339D-05  .169903392671D-01  .346451997757D-05  .515355748940D+04
     .388800000000D+06 -.707805156708D-07  .245795967559D+01  .387430191040D-06
     .947221425860D+00  .307218750000D+03 -.196497915121D+01 -.890929967952D-08
    -.390016245742D-09  .100000000000D+01  .196100000000D+04  .000000000000D+00
     .240000000000D+01  .000000000000D+00 -.204890966415D-07  .360000000000D+02
     .381606000000D+06  .400000000000D+01
 3 17  8 10 12  0  0.0 -.798483379185D-04  .363797880709D-11  .000000000000D+00
     .400000000000D+02 -.482187500000D+02  .403302513454D-08 -.204076113700D+01
    -.241957604885D-05  .867980532348D-03  .128038227558D-04  .515369192886D+04
     .388800000000D+06 -.819563865662D-07 -.272814396464D+01  .484287738800D-07
     .960458031526D+00  .132093750000D+03  .281424162217D+00 -.774246536190D-08
     .300012496725D-10  .100000000000D+01  .196100000000D+04  .000000000000D+00
     .240000000000D+01  .000000000000D+00  .232830643654D-08  .400000000000D+02
     .381606000000D+06  .400000000000D+01
 4 17  8 10 12  0  0.0  .798888504505D-05  .522959453519D-11  .000000000000D+00
     .570000000000D+02  .950937500000D+02  .489520390489D-08  .118079815029D+01
     .520423054695D-05  .122958817519D-01  .580959022045D-05  .515366496849D+04
     .388800000000D+06 -.167638063431D-07  .136625418577D+01  .199303030968D-06
     .956528734507D+00  .263875000000D+03  .430422852817D+00 -.849392523465D-08
     .123219418298D-09  .100000000000D+01  .196100000000D+04  .000000000000D+00
     .240000000000D+01  .630000000000D+02 -.558793544769D-08  .570000000000D+02
     .381606000000D+06  .400000000000D+01
 5 17  8 10 12  0  0.0 -.337981618941D-04  .147792889038D-11  .000000000000D+00
     .580000000000D+02 -.639687500000D+02  .441482675240D-08  .169074491829D+01
    -.320747494698D-05  .513569195755D-02  .125002115965D-04  .515381532288D+04
     .388800000000D+06 -.465661287308D-07 -.274599169394D+01 -.484287738800D-07
     .947406931187D+00  .135250000000D+03  .570373674513D+00 -.799390440678D-08
    -.796461747257D-10  .100000000000D+01  .196100000000D+04  .000000000000D+00
     .240000000000D+01  .000000000000D+00 -.107102096081D-07  .580000000000D+02
     .381606000000D+06  .400000000000D+01
 6 17  8 10 12  0  0.0  .386758241802D-03  .386535248253D-11  .000000000000D+00
     .670000000000D+02 -.786875000000D+02  .466948021688D-08 -.113942838355D+01
    -.405684113503D-05  .618220772594D-03  .386685132980D-05  .515372254562D+04
     .388800000000D+06  .260770320892D-07  .250455321411D+01  .596046447754D-07
     .968057746119D+00  .309250000000D+03 -.105731526282D+01 -.839642117322D-08
    -.378230040514D-09  .100000000000D+01  .196100000000D+04  .000000000000D+00
     .240000000000D+01  .000000000000D+00  .465661287308D-08  .670000000000D+02
     .381606000000D+06  .400000000000D+01
 7 17  8 10 12  0  0.0  .317394267768D-03 -.477484718431D-11  .000000000000D+00
     .810000000000D+02 -.433437500000D+02  .485448792319D-08 -.185656188274D+01
    -.251270830631D-05  .109636904672D-01  .576861202717D-05  .515372051048D+04
     .388800000000D+06  .119209289551D-06 -.613627011182D+00 -.614672899246D-07
     .961469637915D+00  .264437500000D+03 -.257408016596D+01 -.819748431527D-08
    -.186079179516D-09  .100000000000D+01  .196100000000D+04  .000000000000D+00
     .240000000000D+01  .000000000000D+00 -.111758708954D-07  .810000000000D+02
     .381606000000D+06  .400000000000D+01
 8 17  8 10 12  0  0.0 -.693802721798D-04 -.136424205266D-11  .000000000000D+00
     .110000000000D+03  .878437500000D+02  .465805116939D-08  .145565237520D+01
     .461190938950D-05  .254400155973D-02  .485591590405D-05  .515367109108D+04
     .388800000000D+06  .670552253723D-07  .144906616002D+01  .931322574615D-08
     .967059153850D+00  .284375000000D+03 -.619821357430D+00 -.829070248389D-08
     .228938107620D-09  .100000000000D+01  .196100000000D+04  .000000000000D+00
     .240000000000D+01  .000000000000D+00  .558793544769D-08  .110000000000D+03
     .381606000000D+06  .400000000000D+01
10 17  8 10 12  0  0.0  .330526381731D-04  .110276232590D-10  .000000000000D+00
     .320000000000D+02 -.427500000000D+02  .411838583302D-08  .295861042721D+01
    -.217929482460D-05  .268026988488D-02  .116731971502D-04  .515367929840D+04
     .388800000000D+06 -.149011611938D-07 -.273180430856D+01 -.260770320892D-07
     .960609490361D+00  .153968750000D+03 -.280950795574D+01 -.779353891789D-08
     .525021869268D-10  .100000000000D+01  .196100000000D+04  .000000000000D+00
     .240000000000D+01  .000000000000D+00  .186264514923D-08  .320000000000D+02
     .381606000000D+06  .400000000000D+01
11 17  8 10 12  0  0.0 -.708192586899D-03 -.250111042988D-11  .000000000000D+00
     .380000000000D+02 -.110000000000D+02  .620811573580D-08 -.183020338905D+01
    -.258907675743D-06  .170510777971D-01  .907108187675D-06  .515372022820D+04
     .388800000000D+06  .147148966789D-06  .210534613068D+01  .355765223503D-06
     .901632876948D+00  .329437500000D+03  .167461899383D+01 -.907787813006D-08
    -.162863926793D-09  .100000000000D+01  .196100000000D+04  .000000000000D+00
     .240000000000D+01  .000000000000D+00 -.121071934700D-07  .380000000000D+02
     .381606000000D+06  .400000000000D+01
